[{"OBJECT_NAME":"ONEWEB-0174","OBJECT_ID":"2021-025AG","EPOCH":"2026-04-03T04:09:01.287648","MEAN_MOTION":13.1347074,"ECCENTRICITY":0.0001572,"INCLINATION":87.9,"RA_OF_ASC_NODE":335.1552,"ARG_OF_PERICENTER":76.9584,"MEAN_ANOMALY":283.1721,"EPHEMERIS_TYPE":0,"CLASSIFICATION_TYPE":"U","NORAD_CAT_ID":48072,"ELEMENT_SET_NO":999,"REV_AT_EPOCH":24398,"BSTAR":-0.00070297,"MEAN_MOTION_DOT":-2.44e-06,"MEAN_MOTION_DDOT":0.0},{"OBJECT_NAME":"ONEWEB-0175","OBJECT_ID":"2021-025AH","EPOCH":"2026-04-03T04:52:54.388992","MEAN_MOTION":13.13471863,"ECCENTRICITY":0.0002051,"INCLINATION":87.901,"RA_OF_ASC_NODE":335.1273,"ARG_OF_PERICENTER":82.1023,"MEAN_ANOMALY":278.0339,"EPHEMERIS_TYPE":0,"CLASSIFICATION_TYPE":"U","NORAD_CAT_ID":48073,"ELEMENT_SET_NO":999,"REV_AT_EPOCH":24364,"BSTAR":0.00089481,"MEAN_MOTION_DOT":3.4e-06,"MEAN_MOTION_DDOT":0.0},{"OBJECT_NAME":"ONEWEB-0177","OBJECT_ID":"2021-025AJ","EPOCH":"2026-04-03T05:09:58.286016","MEAN_MOTION":13.13468984,"ECCENTRICITY":0.0001667,"INCLINATION":87.9009,"RA_OF_ASC_NODE":335.1462,"ARG_OF_PERICENTER":73.1078,"MEAN_ANOMALY":287.0234,"EPHEMERIS_TYPE":0,"CLASSIFICATION_TYPE":"U","NORAD_CAT_ID":48074,"ELEMENT_SET_NO":999,"REV_AT_EPOCH":24383,"BSTAR":0.00030178,"MEAN_MOTION_DOT":1.23e-06,"MEAN_MOTION_DDOT":0.0},{"OBJECT_NAME":"ONEWEB-0178","OBJECT_ID":"2021-025AK","EPOCH":"2026-04-03T05:36:58.579776","MEAN_MOTION":13.13468808,"ECCENTRICITY":0.0001994,"INCLINATION":87.8994,"RA_OF_ASC_NODE":335.1652,"ARG_OF_PERICENTER":77.2384,"MEAN_ANOMALY":282.8968,"EPHEMERIS_TYPE":0,"CLASSIFICATION_TYPE":"U","NORAD_CAT_ID":48075,"ELEMENT_SET_NO":999,"REV_AT_EPOCH":24388,"BSTAR":-0.00068066,"MEAN_MOTION_DOT":-2.36e-06,"MEAN_MOTION_DDOT":0.0},{"OBJECT_NAME":"ONEWEB-0108","OBJECT_ID":"2021-025AL","EPOCH":"2026-04-03T04:38:17.524896","MEAN_MOTION":13.13469638,"ECCENTRICITY":0.0001525,"INCLINATION":87.9014,"RA_OF_ASC_NODE":335.1385,"ARG_OF_PERICENTER":86.0924,"MEAN_ANOMALY":274.0379,"EPHEMERIS_TYPE":0,"CLASSIFICATION_TYPE":"U","NORAD_CAT_ID":48076,"ELEMENT_SET_NO":999,"REV_AT_EPOCH":24380,"BSTAR":0.0011661,"MEAN_MOTION_DOT":4.39e-06,"MEAN_MOTION_DDOT":0.0},{"OBJECT_NAME":"ONEWEB-0169","OBJECT_ID":"2021-025AM","EPOCH":"2026-04-03T05:24:35.536320","MEAN_MOTION":13.13468753,"ECCENTRICITY":0.0001567,"INCLINATION":87.9001,"RA_OF_ASC_NODE":335.1465,"ARG_OF_PERICENTER":85.2611,"MEAN_ANOMALY":274.8697,"EPHEMERIS_TYPE":0,"CLASSIFICATION_TYPE":"U","NORAD_CAT_ID":48077,"ELEMENT_SET_NO":999,"REV_AT_EPOCH":24246,"BSTAR":-0.00044905,"MEAN_MOTION_DOT":-1.51e-06,"MEAN_MOTION_DDOT":0.0},{"OBJECT_NAME":"ONEWEB-0176","OBJECT_ID":"2021-031A","EPOCH":"2026-04-03T06:41:52.920672","MEAN_MOTION":13.14504404,"ECCENTRICITY":0.0001753,"INCLINATION":87.8942,"RA_OF_ASC_NODE":304.652,"ARG_OF_PERICENTER":84.8584,"MEAN_ANOMALY":275.2746,"EPHEMERIS_TYPE":0,"CLASSIFICATION_TYPE":"U","NORAD_CAT_ID":48210,"ELEMENT_SET_NO":999,"REV_AT_EPOCH":23847,"BSTAR":0.0005224800000000001,"MEAN_MOTION_DOT":2.07e-06,"MEAN_MOTION_DDOT":0.0},{"OBJECT_NAME":"ONEWEB-0184","OBJECT_ID":"2021-031B","EPOCH":"2026-04-03T02:23:49.499808","MEAN_MOTION":13.14503706,"ECCENTRICITY":0.0002493,"INCLINATION":87.8953,"RA_OF_ASC_NODE":304.681,"ARG_OF_PERICENTER":81.7279,"MEAN_ANOMALY":278.4133,"EPHEMERIS_TYPE":0,"CLASSIFICATION_TYPE":"U","NORAD_CAT_ID":48211,"ELEMENT_SET_NO":999,"REV_AT_EPOCH":23842,"BSTAR":-0.00019319,"MEAN_MOTION_DOT":-5.9e-07,"MEAN_MOTION_DDOT":0.0},{"OBJECT_NAME":"ONEWEB-0179","OBJECT_ID":"2021-031C","EPOCH":"2026-04-03T08:00:01.999872","MEAN_MOTION":13.67145733,"ECCENTRICITY":0.00024,"INCLINATION":87.8939,"RA_OF_ASC_NODE":304.4637,"ARG_OF_PERICENTER":191.4866,"MEAN_ANOMALY":235.3669,"EPHEMERIS_TYPE":0,"CLASSIFICATION_TYPE":"U","NORAD_CAT_ID":48212,"ELEMENT_SET_NO":999,"REV_AT_EPOCH":526,"BSTAR":0.42675,"MEAN_MOTION_DOT":0.00371384,"MEAN_MOTION_DDOT":0.0},{"OBJECT_NAME":"ONEWEB-0180","OBJECT_ID":"2021-031D","EPOCH":"2026-04-03T02:28:23.827584","MEAN_MOTION":13.14504837,"ECCENTRICITY":0.0001772,"INCLINATION":87.8946,"RA_OF_ASC_NODE":304.682,"ARG_OF_PERICENTER":75.4844,"MEAN_ANOMALY":284.6482,"EPHEMERIS_TYPE":0,"CLASSIFICATION_TYPE":"U","NORAD_CAT_ID":48213,"ELEMENT_SET_NO":999,"REV_AT_EPOCH":23835,"BSTAR":0.0006523,"MEAN_MOTION_DOT":2.55e-06,"MEAN_MOTION_DDOT":0.0},{"OBJECT_NAME":"ONEWEB-0218","OBJECT_ID":"2021-031E","EPOCH":"2026-04-03T06:39:36.019008","MEAN_MOTION":13.14504093,"ECCENTRICITY":0.0002495,"INCLINATION":87.8944,"RA_OF_ASC_NODE":304.6459,"ARG_OF_PERICENTER":74.3778,"MEAN_ANOMALY":285.7627,"EPHEMERIS_TYPE":0,"CLASSIFICATION_TYPE":"U","NORAD_CAT_ID":48214,"ELEMENT_SET_NO":999,"REV_AT_EPOCH":23853,"BSTAR":0.00021439,"MEAN_MOTION_DOT":9.2e-07,"MEAN_MOTION_DDOT":0.0},{"OBJECT_NAME":"ONEWEB-0209","OBJECT_ID":"2021-031F","EPOCH":"2026-04-03T02:44:23.184672","MEAN_MOTION":13.14504417,"ECCENTRICITY":0.0001584,"INCLINATION":87.8934,"RA_OF_ASC_NODE":304.7029,"ARG_OF_PERICENTER":79.9187,"MEAN_ANOMALY":280.2121,"EPHEMERIS_TYPE":0,"CLASSIFICATION_TYPE":"U","NORAD_CAT_ID":48215,"ELEMENT_SET_NO":999,"REV_AT_EPOCH":23851,"BSTAR":0.00076105,"MEAN_MOTION_DOT":2.95e-06,"MEAN_MOTION_DDOT":0.0},{"OBJECT_NAME":"ONEWEB-0198","OBJECT_ID":"2021-031G","EPOCH":"2026-04-03T02:21:45.311040","MEAN_MOTION":13.14504144,"ECCENTRICITY":0.0001915,"INCLINATION":87.8938,"RA_OF_ASC_NODE":304.7062,"ARG_OF_PERICENTER":73.7251,"MEAN_ANOMALY":286.4089,"EPHEMERIS_TYPE":0,"CLASSIFICATION_TYPE":"U","NORAD_CAT_ID":48216,"ELEMENT_SET_NO":999,"REV_AT_EPOCH":23862,"BSTAR":0.00031630000000000004,"MEAN_MOTION_DOT":1.3e-06,"MEAN_MOTION_DDOT":0.0},{"OBJECT_NAME":"ONEWEB-0189","OBJECT_ID":"2021-031H","EPOCH":"2026-04-03T02:39:49.403808","MEAN_MOTION":13.14506006,"ECCENTRICITY":0.0001859,"INCLINATION":87.8942,"RA_OF_ASC_NODE":304.6823,"ARG_OF_PERICENTER":75.4831,"MEAN_ANOMALY":284.6505,"EPHEMERIS_TYPE":0,"CLASSIFICATION_TYPE":"U","NORAD_CAT_ID":48217,"ELEMENT_SET_NO":999,"REV_AT_EPOCH":23836,"BSTAR":0.00078816,"MEAN_MOTION_DOT":3.05e-06,"MEAN_MOTION_DDOT":0.0},{"OBJECT_NAME":"ONEWEB-0196","OBJECT_ID":"2021-031J","EPOCH":"2026-04-03T02:07:51.494016","MEAN_MOTION":13.14502233,"ECCENTRICITY":0.000172,"INCLINATION":87.8947,"RA_OF_ASC_NODE":304.6967,"ARG_OF_PERICENTER":80.6261,"MEAN_ANOMALY":279.5063,"EPHEMERIS_TYPE":0,"CLASSIFICATION_TYPE":"U","NORAD_CAT_ID":48218,"ELEMENT_SET_NO":999,"REV_AT_EPOCH":23836,"BSTAR":-0.00010693,"MEAN_MOTION_DOT":-2.7e-07,"MEAN_MOTION_DDOT":0.0},{"OBJECT_NAME":"ONEWEB-0183","OBJECT_ID":"2021-031K","EPOCH":"2026-04-03T03:20:55.282272","MEAN_MOTION":13.14503965,"ECCENTRICITY":0.0001433,"INCLINATION":87.8945,"RA_OF_ASC_NODE":304.686,"ARG_OF_PERICENTER":85.7348,"MEAN_ANOMALY":274.3945,"EPHEMERIS_TYPE":0,"CLASSIFICATION_TYPE":"U","NORAD_CAT_ID":48219,"ELEMENT_SET_NO":999,"REV_AT_EPOCH":23846,"BSTAR":-0.00037385,"MEAN_MOTION_DOT":-1.26e-06,"MEAN_MOTION_DDOT":0.0},{"OBJECT_NAME":"ONEWEB-0185","OBJECT_ID":"2021-031L","EPOCH":"2026-04-03T02:08:59.781984","MEAN_MOTION":13.14504297,"ECCENTRICITY":0.0001355,"INCLINATION":87.8946,"RA_OF_ASC_NODE":304.6828,"ARG_OF_PERICENTER":75.6513,"MEAN_ANOMALY":284.4768,"EPHEMERIS_TYPE":0,"CLASSIFICATION_TYPE":"U","NORAD_CAT_ID":48220,"ELEMENT_SET_NO":999,"REV_AT_EPOCH":23838,"BSTAR":-7.4879e-05,"MEAN_MOTION_DOT":-1.5e-07,"MEAN_MOTION_DDOT":0.0},{"OBJECT_NAME":"ONEWEB-0187","OBJECT_ID":"2021-031M","EPOCH":"2026-04-03T03:29:51.153216","MEAN_MOTION":13.14504713,"ECCENTRICITY":0.0001607,"INCLINATION":87.893,"RA_OF_ASC_NODE":304.7005,"ARG_OF_PERICENTER":77.3424,"MEAN_ANOMALY":282.7886,"EPHEMERIS_TYPE":0,"CLASSIFICATION_TYPE":"U","NORAD_CAT_ID":48221,"ELEMENT_SET_NO":999,"REV_AT_EPOCH":23840,"BSTAR":-0.00046217999999999997,"MEAN_MOTION_DOT":-1.59e-06,"MEAN_MOTION_DDOT":0.0},{"OBJECT_NAME":"ONEWEB-0192","OBJECT_ID":"2021-031N","EPOCH":"2026-04-03T02:46:40.016352","MEAN_MOTION":13.14504254,"ECCENTRICITY":0.0001797,"INCLINATION":87.893,"RA_OF_ASC_NODE":304.6957,"ARG_OF_PERICENTER":84.1532,"MEAN_ANOMALY":275.9803,"EPHEMERIS_TYPE":0,"CLASSIFICATION_TYPE":"U","NORAD_CAT_ID":48222,"ELEMENT_SET_NO":999,"REV_AT_EPOCH":23831,"BSTAR":0.0005261900000000001,"MEAN_MOTION_DOT":2.08e-06,"MEAN_MOTION_DDOT":0.0},{"OBJECT_NAME":"ONEWEB-0219","OBJECT_ID":"2021-031P","EPOCH":"2026-04-03T02:16:58.668672","MEAN_MOTION":13.14501989,"ECCENTRICITY":0.0001554,"INCLINATION":87.8942,"RA_OF_ASC_NODE":304.6872,"ARG_OF_PERICENTER":78.3097,"MEAN_ANOMALY":281.8207,"EPHEMERIS_TYPE":0,"CLASSIFICATION_TYPE":"U","NORAD_CAT_ID":48223,"ELEMENT_SET_NO":999,"REV_AT_EPOCH":23851,"BSTAR":0.00022066,"MEAN_MOTION_DOT":9.5e-07,"MEAN_MOTION_DDOT":0.0},{"OBJECT_NAME":"ONEWEB-0202","OBJECT_ID":"2021-031Q","EPOCH":"2026-04-02T23:59:58.978752","MEAN_MOTION":13.14502863,"ECCENTRICITY":0.0002277,"INCLINATION":87.8948,"RA_OF_ASC_NODE":304.7153,"ARG_OF_PERICENTER":76.1312,"MEAN_ANOMALY":284.0071,"EPHEMERIS_TYPE":0,"CLASSIFICATION_TYPE":"U","NORAD_CAT_ID":48224,"ELEMENT_SET_NO":999,"REV_AT_EPOCH":23848,"BSTAR":-0.0005938299999999999,"MEAN_MOTION_DOT":-2.07e-06,"MEAN_MOTION_DDOT":0.0},{"OBJECT_NAME":"ONEWEB-0204","OBJECT_ID":"2021-031R","EPOCH":"2026-04-03T02:38:40.836768","MEAN_MOTION":13.14502045,"ECCENTRICITY":0.0001361,"INCLINATION":87.8949,"RA_OF_ASC_NODE":304.688,"ARG_OF_PERICENTER":88.7284,"MEAN_ANOMALY":271.4001,"EPHEMERIS_TYPE":0,"CLASSIFICATION_TYPE":"U","NORAD_CAT_ID":48225,"ELEMENT_SET_NO":999,"REV_AT_EPOCH":23839,"BSTAR":0.0007430000000000001,"MEAN_MOTION_DOT":2.88e-06,"MEAN_MOTION_DDOT":0.0},{"OBJECT_NAME":"ONEWEB-0205","OBJECT_ID":"2021-031S","EPOCH":"2026-04-03T02:03:16.262496","MEAN_MOTION":13.14502482,"ECCENTRICITY":0.0001594,"INCLINATION":87.8943,"RA_OF_ASC_NODE":304.6843,"ARG_OF_PERICENTER":80.4385,"MEAN_ANOMALY":279.6925,"EPHEMERIS_TYPE":0,"CLASSIFICATION_TYPE":"U","NORAD_CAT_ID":48226,"ELEMENT_SET_NO":999,"REV_AT_EPOCH":23840,"BSTAR":-0.00072904,"MEAN_MOTION_DOT":-2.57e-06,"MEAN_MOTION_DDOT":0.0}]